# Last update: 2026-03-13T00:59:16Z
STARLINK-3938           
1 52566U 22051AK  26071.51932320  .00001997  00000+0  14358-3 0  9994
2 52566  53.2166 121.4160 0001339  94.1309 265.9836 15.08832193211807
STARLINK-3929           
1 52567U 22051AL  26071.48573095 -.00000132  00000+0  97968-5 0  9992
2 52567  53.2167 106.5692 0001365  87.1485 272.9663 15.08839011212004
STARLINK-3930           
1 52568U 22051AM  26071.47467489  .00002249  00000+0  15929-3 0  9996
2 52568  53.2171 106.6166 0001357  82.1390 277.9756 15.08855274212005
STARLINK-3927           
1 52569U 22051AN  26071.48204833  .00000657  00000+0  59388-4 0  9999
2 52569  53.2168 106.5837 0001259  89.4408 270.6728 15.08840697212009
STARLINK-3901           
1 52574U 22051AQ  26071.47839146  .00006531  00000+0  42829-3 0  9993
2 52574  53.2175 106.5991 0001366  91.8031 268.3117 15.08816855212007
STARLINK-3932           
1 52576U 22051AS  26071.39469592 -.00000652  00000+0 -22871-4 0  9996
2 52576  53.2177 106.9798 0001461  98.2015 261.9143 15.08829977211993
STARLINK-3836           
1 52577U 22051AT  26071.51195110  .00000704  00000+0  62325-4 0  9997
2 52577  53.2176 121.4511 0001333  91.2300 268.8845 15.08841404211800
STARLINK-3833           
1 52578U 22051AU  26071.51563047 -.00003731  00000+0 -21637-3 0  9991
2 52578  53.2169 121.4339 0001435  82.5451 277.5704 15.08848758211804
STARLINK-3893           
1 52579U 22051AV  26071.50459727  .00000012  00000+0  18835-4 0  9994
2 52579  53.2171 121.4854 0001303  87.0870 273.0271 15.08831614211802
STARLINK-3919           
1 52580U 22051AW  26071.50923237  .00000852  00000+0  71642-4 0  9995
2 52580  53.2175 121.4734 0001321  98.0138 262.1004 15.08837846211800
STARLINK-3915           
1 52581U 22051AX  26071.32381064 -.00000423  00000+0 -84851-5 0  9995
2 52581  53.2161 107.2946 0001270 105.3508 254.7624 15.08836279211982
STARLINK-3895           
1 52583U 22051AZ  26071.51885310  .00000400  00000+0  43250-4 0  9991
2 52583  53.2165 106.4204 0001291  87.8835 272.2305 15.08837713212016
STARLINK-3922           
1 52584U 22051BA  26071.52621273  .00000603  00000+0  55957-4 0  9991
2 52584  53.2164 106.3872 0001252  92.5052 267.6084 15.08837924212013
STARLINK-3906           
1 52585U 22051BB  26071.50778328  .00003557  00000+0  24132-3 0  9995
2 52585  53.2160 106.4330 0001207  84.8807 275.2323 15.08858344212012
STARLINK-3910           
1 52586U 22051BC  26071.31645552 -.00001550  00000+0 -79330-4 0  9991
2 52586  53.2159 107.3270 0001194  97.9363 262.1765 15.08841253211982
STARLINK-3867           
1 52587U 22051BD  26071.36154947  .00000698  00000+0  61915-4 0  9990
2 52587  53.2169 106.9832 0001405  88.3515 271.7638 15.08842573211993
STARLINK-3917           
1 52588U 22051BE  26071.50412870 -.00000122  00000+0  10399-4 0  9992
2 52588  53.2163 106.4876 0001281  94.9993 265.1145 15.08839257212015
STARLINK-4019           
1 52598U 22052A   26071.74103007  .00000417  00000+0  44283-4 0  9994
2 52598  53.2163 270.4219 0001209  96.5819 263.5311 15.08841738212041
STARLINK-4024           
1 52599U 22052B   26071.72863001  .00000080  00000+0  23089-4 0  9997
2 52599  53.2167 265.5839 0001319  86.9810 273.1333 15.08838539212119
STARLINK-4026           
1 52600U 22052C   26071.83901174  .00000001  00000+0  18139-4 0  9999
2 52600  53.2159 264.9863 0001328  90.5700 269.5444 15.08838586212138
STARLINK-4027           
1 52601U 22052D   26071.71389182  .00000313  00000+0  37778-4 0  9992
2 52601  53.2160 265.5473 0001387  99.2835 260.8314 15.08838632212115
STARLINK-4012           
1 52602U 22052E   26071.71021310  .00000296  00000+0  36672-4 0  9991
2 52602  53.2163 265.5631 0001219  90.2653 269.8478 15.08836527212119
STARLINK-4016           
1 52603U 22052F   26071.76269070  .00000019  00000+0  19271-4 0  9993
2 52603  53.2165 265.3370 0001229  87.6648 272.4485 15.08836224212128
STARLINK-4013           
1 52604U 22052G   26071.76909926  .00001157  00000+0  90818-4 0  9995
2 52604  53.2156 265.3004 0001317 101.0106 259.1034 15.08827624211328
STARLINK-4000           
1 52605U 22052H   26071.71620565 -.00002226  00000+0 -12181-3 0  9996
2 52605  53.2150 270.3160 0001040  95.9146 264.1965 15.08835786211248
STARLINK-3928           
1 52606U 22052J   26071.76540995 -.00000496  00000+0 -13086-4 0  9993
2 52606  53.2170 265.3153 0001497  97.4413 262.6750 15.08837513211321
STARLINK-3947           
1 52607U 22052K   26071.73095050  .00000260  00000+0  34442-4 0  9994
2 52607  53.2166 270.4785 0001326  99.0148 261.0994 15.08836168211237
STARLINK-3979           
1 52608U 22052L   26071.75805280  .00002358  00000+0  16611-3 0  9998
2 52608  53.2161 265.3471 0001263  90.6267 269.4869 15.08854573211320
STARLINK-3997           
1 52609U 22052M   26071.74700424 -.00000281  00000+0  45218-6 0  9994
2 52609  53.2162 265.3470 0001326  97.1885 262.9258 15.08837890211322
STARLINK-3998           
1 52610U 22052N   26071.73367806  .00000013  00000+0  18884-4 0  9997
2 52610  53.2170 270.4563 0001396  90.5101 269.6051 15.08833832211246
STARLINK-3980           
1 52611U 22052P   26071.72631428  .00000927  00000+0  76315-4 0  9998
2 52611  53.2166 270.4925 0001176  92.7543 267.3584 15.08837932211245
STARLINK-4002           
1 52612U 22052Q   26071.75437874  .00001086  00000+0  86278-4 0  9997
2 52612  53.2169 265.3643 0001179  83.1275 276.9852 15.08844312211321
STARLINK-3982           
1 52614U 22052S   26071.69696705  .00065037  00000+0  12001-2 0  9999
2 52614  53.2104 215.7293 0002436 342.6877  17.4049 15.48527609212014
STARLINK-4011           
1 52615U 22052T   26071.72261510  .00004777  00000+0  31770-3 0  9995
2 52615  53.2168 270.5093 0001062  92.0819 268.0295 15.08873071211231
STARLINK-3996           
1 52617U 22052V   26071.72585172 -.00000755  00000+0 -29369-4 0  9996
2 52617  53.2163 255.4900 0001302  96.5761 263.5379 15.08838326211449
STARLINK-3983           
1 52618U 22052W   26071.72953219 -.00000103  00000+0  11607-4 0  9990
2 52618  53.2176 255.4760 0001662  94.9380 265.1802 15.08838973211443
STARLINK-3741           
1 52619U 22052X   26071.72217237 -.00002650  00000+0 -14847-3 0  9992
2 52619  53.2175 255.4979 0001545  98.4498 261.6669 15.08843449211440
STARLINK-3975           
1 52620U 22052Y   26071.71896140  .00001221  00000+0  94820-4 0  9990
2 52620  53.2189 270.5263 0002250  95.9938 264.1311 15.08834122211233
STARLINK-3984           
1 52621U 22052Z   26071.71480957  .00000471  00000+0  47659-4 0  9990
2 52621  53.2166 255.5406 0001335  93.8717 266.2428 15.08840242211441
STARLINK-4008           
1 52622U 22052AA  26071.74839273  .00000145  00000+0  27194-4 0  9993
2 52622  53.2163 270.3900 0001279  90.7245 269.3894 15.08838641211241
STARLINK-3986           
1 52623U 22052AB  26071.71113447  .00000809  00000+0  68912-4 0  9999
2 52623  53.2168 255.5579 0001185  89.9035 270.2092 15.08851537211449
STARLINK-3988           
1 52625U 22052AD  26071.70744100  .00000965  00000+0  78673-4 0  9994
2 52625  53.2171 255.5754 0001381  85.5929 274.5221 15.08849449211442
STARLINK-3990           
1 52626U 22052AE  26071.71849031  .00000758  00000+0  65728-4 0  9992
2 52626  53.2173 255.5224 0001415  85.6892 274.4262 15.08839487211440
STARLINK-3992           
1 52627U 22052AF  26071.76265576  .00001728  00000+0  12660-3 0  9998
2 52627  53.2159 255.3277 0001233 102.0565 258.0565 15.08853744211468
STARLINK-4001           
1 52628U 22052AG  26071.74471256 -.00001755  00000+0 -92248-4 0  9994
2 52628  53.2167 270.4073 0001094  94.1817 265.9300 15.08830274211249
STARLINK-4022           
1 52629U 22052AH  26071.75529209 -.00003097  00000+0 -17657-3 0  9999
2 52629  53.2162 255.3240 0001285  90.7888 269.3252 15.08838371211458
STARLINK-3989           
1 52630U 22052AJ  26071.77001234  .00000178  00000+0  29252-4 0  9996
2 52630  53.2167 255.2942 0001322  90.5188 269.5956 15.08836909211454
STARLINK-3794           
1 52631U 22052AK  26071.75624876  .00000049  00000+0  21147-4 0  9990
2 52631  53.2169 255.3686 0001470  92.6535 267.4625 15.08840698211467
STARLINK-3995           
1 52632U 22052AL  26071.76633337 -.00002425  00000+0 -13429-3 0  9999
2 52632  53.2161 255.3105 0001427  83.7654 276.3500 15.08843169211468
STARLINK-3994           
1 52633U 22052AM  26071.74424471 -.00005000  00000+0 -29638-3 0  9996
2 52633  53.2150 255.4116 0001202  86.6055 273.5075 15.08828410211466
STARLINK-3974           
1 52634U 22052AN  26071.75897260  .00000766  00000+0  66223-4 0  9992
2 52634  53.2151 255.3733 0000965  88.6952 271.4150 15.08841011211457
STARLINK-3978           
1 52635U 22052AP  26071.85925923  .00000382  00000+0  42078-4 0  9998
2 52635  53.2157 244.8941 0001272  89.1009 271.0129 15.08836142211618
STARLINK-3967           
1 52636U 22052AQ  26071.75161294 -.00000025  00000+0  16527-4 0  9996
2 52636  53.2162 255.3774 0001035  85.6647 274.4463 15.08837495211454
STARLINK-3961           
1 52637U 22052AR  26071.85557278  .00000324  00000+0  38455-4 0  9994
2 52637  53.2162 244.9110 0001241  84.9281 275.1852 15.08838138212410
STARLINK-3941           
1 52638U 22052AS  26071.74793476 -.00000114  00000+0  10901-4 0  9999
2 52638  53.2162 255.3959 0001292  90.2755 269.8385 15.08833230212262
STARLINK-3968           
1 52639U 22052AT  26071.84453719 -.00000547  00000+0 -16311-4 0  9996
2 52639  53.2167 244.9584 0001281  98.1607 261.9530 15.08843963212413
STARLINK-3977           
1 52640U 22052AU  26071.86293464  .00000539  00000+0  51941-4 0  9996
2 52640  53.2157 244.9066 0001502  96.1238 263.9925 15.08841298211602
STARLINK-3991           
1 52641U 22052AV  26071.86023321  .00000461  00000+0  47053-4 0  9993
2 52641  53.2157 245.0920 0001233  94.6772 265.4361 15.08840101211615
STARLINK-3971           
1 52642U 22052AW  26071.85189367  .00000319  00000+0  38104-4 0  9995
2 52642  53.2168 244.9275 0001386  93.9633 266.1518 15.08838016211609
